[{"OBJECT_NAME":"STARLINK-34197","OBJECT_ID":"2025-113Q","EPOCH":"2026-03-09T07:18:07.396992","MEAN_MOTION":15.30156015,"ECCENTRICITY":0.00016174,"INCLINATION":53.1588,"RA_OF_ASC_NODE":93.0984,"ARG_OF_PERICENTER":64.8864,"MEAN_ANOMALY":295.2305,"EPHEMERIS_TYPE":0,"CLASSIFICATION_TYPE":"U","NORAD_CAT_ID":64184,"ELEMENT_SET_NO":999,"REV_AT_EPOCH":4500,"BSTAR":1.0455838e-5,"MEAN_MOTION_DOT":-5.0e-7,"MEAN_MOTION_DDOT":0},{"OBJECT_NAME":"COSMOS 1869","OBJECT_ID":"1987-062A","EPOCH":"2026-03-09T20:30:29.271744","MEAN_MOTION":15.35392408,"ECCENTRICITY":0.00185772,"INCLINATION":82.5127,"RA_OF_ASC_NODE":201.6716,"ARG_OF_PERICENTER":61.4986,"MEAN_ANOMALY":298.8125,"EPHEMERIS_TYPE":0,"CLASSIFICATION_TYPE":"U","NORAD_CAT_ID":18214,"ELEMENT_SET_NO":999,"REV_AT_EPOCH":8931,"BSTAR":0.00042037944,"MEAN_MOTION_DOT":0.00014573,"MEAN_MOTION_DDOT":0}]
